#aV2007  2 28  0  0   .00000000      96 DD+AD WGS84 FIT  NGA
## 1416 259200.00000000   900.00000000 54159  .0000000000000
+   30     1  2  3  4  5  6  7  8  9 10 11 12 13 14 16 17 18
+         19 20 21 22 23 24 25 26 27 28 29 30 31  0  0  0  0
+          0  0  0  0  0  0  0  0  0  0  0  0  0  0  0  0  0
+          0  0  0  0  0  0  0  0  0  0  0  0  0  0  0  0  0
+          0  0  0  0  0  0  0  0  0  0  0  0  0  0  0  0  0
++         0  0  0  0  0  0  0  0  0  0  0  0  0  0  0  0  0
++         0  0  0  0  0  0  0  0  0  0  0  0  0  0  0  0  0
++         0  0  0  0  0  0  0  0  0  0  0  0  0  0  0  0  0
++         0  0  0  0  0  0  0  0  0  0  0  0  0  0  0  0  0
++         0  0  0  0  0  0  0  0  0  0  0  0  0  0  0  0  0
%c cc cc ccc ccc cccc cccc cccc cccc ccccc ccccc ccccc ccccc
%c cc cc ccc ccc cccc cccc cccc cccc ccccc ccccc ccccc ccccc
%f  0.0000000  0.000000000  0.00000000000  0.000000000000000
%f  0.0000000  0.000000000  0.00000000000  0.000000000000000
%i    0    0    0    0      0      0      0      0         0
%i    0    0    0    0      0      0      0      0         0
/*      NGA, ST. LOUIS,MO.                                  
/*   EPHEMERIS COMPUTED FROM  3 DAYS OF DATA                
/* CCCCCCCCCCCCCCCCCCCCCCCCCCCCCCCCCCCCCCCCCCCCCCCCCCCCCCCCC
/* CCCCCCCCCCCCCCCCCCCCCCCCCCCCCCCCCCCCCCCCCCCCCCCCCCCCCCCCC
*  2007  2 28  1  0   .00000000                                                 
P  1 -20260.538229 -14713.074682   9157.819152    110.553757                    
V  1  11066.136408   2732.294326  29485.742915       .026185                    
P  2  13854.190654  17994.528258 -14218.614912     86.144637                    
V  2   1118.065541  17695.951512  23617.888879       .032898                    
P  3 -23383.944516 -11107.790885  -6869.313872     20.480429                    
V  3   8995.560201  -1266.029160 -29120.225076       .058803                    
P  4   5961.074531  25592.640878  -2174.951687      5.928309                    
V  4  -3067.291129   3281.353876  31503.306508       .016610                    
P  5  21433.128530 -12841.777047   8556.750817     40.797592                    
V  5  -5503.448095  10382.266236  28747.961730       .032834                    
P  6  16455.960503  -9217.938643 -18529.462077     57.208295                    
V  6  22356.831486   8904.522220  15220.017583       .243529                    
P  7  12569.267804 -11710.077137 -19937.785172    401.211875                    
V  7  24801.826577   8361.915699  10466.050476      -.129434                    
P  8  -1696.209265  25178.628275  -7649.117118    -98.230442                    
V  8  -3811.392033  -9214.284393 -30360.265538      -.012209                    
P  9  15112.361816    -92.129153  21279.718130     59.495535                    
V  9   5992.023357  27741.045011  -3800.329209       .016702                    
P 10  15600.371145   5742.293832 -20893.934497     98.099786                    
V 10 -19908.177177  17010.436646  -9923.948539       .005326                    
P 11 -16294.160382   3553.069098  20582.987971      8.635710                    
V 11  -8824.414027 -25168.678739  -2336.909311       .012717                    
P 12  22452.365180  -9903.663507  10212.467303    -47.496270                    
V 12  -8108.622592  10240.482407  28099.283620       .024596                    
P 13 -13099.580896   9614.566293 -21091.166437    148.110140                    
V 13 -24465.866224 -10175.147045  10649.554178       .039232                    
P 14  -6232.669007 -16421.144379  20029.418793      9.822323                    
V 14  23841.103965   8062.335390  14022.362246       .014224                    
P 16 -10212.973302 -11158.615379 -21749.149185    126.388669                    
V 16  21357.452415 -17807.206604   -757.908419       .035394                    
P 17   5244.232667  16740.625530  19977.917171     77.164122                    
V 17 -24207.722420  -7544.620619  12557.917349      -.014667                    
P 18  15349.981175 -19756.562281   8550.092899   -253.436578                    
V 18  10332.737616  -4295.106257 -29239.524773       .002781                    
P 19 -25202.740563  -7440.852368   4316.433403      9.523446                    
V 19  -3836.808148  -4639.602327 -30993.709877       .040194                    
P 20 -22297.424184  11643.887155   8354.016701    -22.586541                    
V 20   6218.192740  -9242.858780  29179.071405      -.001987                    
P 21   6655.037053 -21568.184109 -13437.054865     72.349756                    
V 21   5719.839329  16835.104116 -24570.918721       .008917                    
P 22   5052.710386 -19557.889135  17390.268317    169.689821                    
V 22  18370.351124 -11904.321473 -18912.764795       .021043                    
P 23 -22199.726376   2732.011048 -14550.166952    152.010682                    
V 23 -16624.374600  -7708.612324  23859.704282       .018170                    
P 24  13547.985212  -9267.068069 -20772.806711     81.070699                    
V 24   4224.591305  26396.694069  -8647.361903       .031930                    
P 25 -15465.190622 -14620.452337 -15422.752914    324.829713                    
V 25  -3435.498349 -20180.520070  22170.428182      -.194017                    
P 26  25333.678204   8733.001736   1653.332199    -64.626242                    
V 26   1907.045333   2197.133191 -31960.849292      -.188588                    
P 27  -5675.497121  20527.741312 -15062.036612     96.552500                    
V 27  -7223.048862 -19205.761013 -22758.593997       .020657                    
P 28  -8316.486805  20322.242511  15009.540368      6.442448                    
V 28 -15802.013978  10114.052978 -23290.627333      -.008852                    
P 29  24695.121914  10051.752946  -2012.951389    359.075334                    
V 29  -3178.113714    621.579949 -31989.577214       .075767                    
P 30  19178.650181 -18280.769196   -628.644257     26.645814                    
V 30   2616.360641   2187.071395  31487.686820       .010283                    
P 31  -7573.697482 -25086.689941  -3924.334531     12.025192                    
V 31   1814.486528  -5681.940501  31274.265351       .030038                    
EOF
